OBJECT_NAME,OBJECT_ID,EPOCH,MEAN_MOTION,ECCENTRICITY,INCLINATION,RA_OF_ASC_NODE,ARG_OF_PERICENTER,MEAN_ANOMALY,EPHEMERIS_TYPE,CLASSIFICATION_TYPE,NORAD_CAT_ID,ELEMENT_SET_NO,REV_AT_EPOCH,BSTAR,MEAN_MOTION_DOT,MEAN_MOTION_DDOT
STARLINK-31097,2024-002P,2026-07-12T21:17:12.511104,15.30195263,.0001116,53.1608,8.4002,86.8535,273.2594,0,U,58718,999,14118,.3062E-4,.548E-5,0
STARLINK-31051,2024-002Q,2026-07-12T18:16:42.005856,15.30197998,.0000859,53.1619,9.0382,79.7671,280.3427,0,U,58719,999,14116,.5301E-4,.1211E-4,0
STARLINK-31027,2024-002R,2026-07-12T19:08:04.400160,15.76527133,.0006832,53.1394,334.6243,19.0534,341.0741,0,U,58720,999,14164,.65286E-3,.106719E-2,0
STARLINK-30972,2024-002S,2026-07-12T21:05:03.403104,15.30194301,.000108,53.1617,8.3471,102.4892,257.6229,0,U,58721,999,14118,.65255E-4,.1574E-4,0
STARLINK-31040,2024-002T,2026-07-12T18:14:19.673952,15.34321620,.0001934,53.1609,7.6117,114.1717,245.9488,0,U,58722,999,14118,.38037E-3,.12465E-3,0
STARLINK-31033,2024-002U,2026-07-12T21:15:42.306048,15.30187326,.0001058,53.1609,8.3882,89.6552,270.4570,0,U,58723,999,14118,.72898E-4,.18E-4,0
STARLINK-30893,2024-002V,2026-07-12T22:40:32.149056,15.34397298,.0001125,53.1603,6.6403,87.6820,272.4312,0,U,58724,999,14120,.12573E-3,.3874E-4,0
STARLINK-30856,2024-002W,2026-07-12T19:35:33.530784,15.30195715,.0000856,53.1616,8.6682,91.6188,268.4911,0,U,58725,999,14117,.75189E-4,.1868E-4,0
UNICORN-2L,2023-185R,2026-07-13T04:17:33.948096,15.21652402,.0012151,97.5390,268.0772,214.9088,145.1351,0,U,58727,999,13874,.24997E-3,.5589E-4,0
STARLINK-31115,2024-005B,2026-07-13T03:09:56.705184,15.27581420,.000124,43.0014,231.7227,279.9775,80.0936,0,U,58729,999,13961,.10934E-4,.39E-6,0
STARLINK-31180,2024-005E,2026-07-13T02:21:50.488128,15.27580225,.0001096,43.0021,231.4917,265.9759,94.0967,0,U,58732,999,13961,.55342E-5,-.11E-5,0
STARLINK-31164,2024-005F,2026-07-13T03:20:51.719136,15.27574672,.0001912,43.0009,230.9334,285.8558,74.2082,0,U,58733,999,13962,.2335E-4,.38E-5,0
STARLINK-31152,2024-005G,2026-07-13T01:52:13.630656,15.27577346,.0003877,42.9942,231.3207,152.2349,207.8710,0,U,58734,999,13962,.50776E-4,.1134E-4,0
STARLINK-31157,2024-005H,2026-07-13T03:31:56.701056,15.27579488,.0001104,43.0022,230.9885,255.2718,104.8011,0,U,58735,999,13963,.16581E-4,.194E-5,0
STARLINK-31076,2024-005J,2026-07-13T03:37:29.919072,15.27580036,.0001412,43.0026,231.0167,277.5183,82.5508,0,U,58736,999,13967,.25204E-4,.431E-5,0
STARLINK-31101,2024-005K,2026-07-13T03:52:18.710688,15.27570025,.0001624,43.0032,231.0947,273.3556,86.7110,0,U,58737,999,13962,-.53504E-4,-.1734E-4,0
STARLINK-31108,2024-005L,2026-07-13T02:08:53.119680,15.27579292,.0001473,43.0025,231.4150,273.1603,86.9080,0,U,58738,999,13961,-.15165E-5,-.304E-5,0
STARLINK-31042,2024-005M,2026-07-12T02:51:20.480256,15.27583858,.00017853,43.0021,237.0236,240.3685,119.6989,0,U,58739,999,13947,.23248529E-4,.378E-5,0
STARLINK-31159,2024-005N,2026-07-12T10:03:16.457472,15.27573953,.00010871,43.0005,234.9779,270.1364,89.9363,0,U,58740,999,13961,.16073827E-4,.18E-5,0
STARLINK-31148,2024-005P,2026-07-13T03:30:05.289120,15.27581223,.0001107,42.9960,230.9846,173.1790,186.9077,0,U,58741,999,13963,-.57356E-5,-.42E-5,0
STARLINK-31151,2024-005Q,2026-07-13T02:06:59.844960,15.27611984,.0001542,42.9950,231.4114,174.6645,185.4223,0,U,58742,999,13971,.53457E-4,.1211E-4,0
STARLINK-31156,2024-005R,2026-07-13T03:46:44.404032,15.27713532,.0001652,43.0046,231.0828,255.4469,104.6200,0,U,58743,999,13968,-.10943E-2,-.30376E-3,0
STARLINK-31167,2024-005S,2026-07-12T17:00:52.467840,15.27577714,.000124,43.0033,88.2661,278.8969,81.1742,0,U,58744,999,14132,.43358E-4,.931E-5,0
STARLINK-31176,2024-005T,2026-07-13T04:07:06.164832,15.27581838,.000147,43.0015,231.1813,273.5082,86.5602,0,U,58745,999,13967,.51218E-4,.1148E-4,0
STARLINK-31181,2024-005U,2026-07-12T08:00:01.999872,15.27598018,.00014934,43.0006,83.6005,268.8905,128.4434,0,U,58746,999,582,-.61497567E-3,-.17155E-3,0
STARLINK-31183,2024-005V,2026-07-12T04:45:51.678720,15.27573474,.00021123,43.0008,236.7765,269.6206,90.4404,0,U,58747,999,13958,.18329661E-4,.242E-5,0
STARLINK-31165,2024-005W,2026-07-13T02:38:29.534784,15.27582901,.0001705,43.0013,231.5771,280.3867,79.6793,0,U,58748,999,13962,.60777E-4,.1411E-4,0
STARLINK-31160,2024-005X,2026-07-13T02:58:49.996128,15.27580016,.0001516,43.0001,231.6114,271.7134,88.3544,0,U,58749,999,13962,.34646E-4,.691E-5,0
STARLINK-31179,2024-005Y,2026-07-13T02:47:45.568032,15.27586619,.0001418,43.0013,231.6227,257.2478,102.8215,0,U,58750,999,13962,.64062E-4,.1501E-4,0
EINSTEIN PROBE,2024-007A,2026-07-13T00:24:25.578144,15.02002396,.000962,28.9996,45.4558,124.5781,235.5726,0,U,58753,999,13745,.11907E-3,.1752E-4,0
NANOFF B,2023-185S,2026-07-13T03:00:44.113248,15.12444331,.0011641,97.5256,261.2341,208.8395,151.2193,0,U,58755,999,13779,.13755E-3,.2329E-4,0
YUNYAO-1 18,2024-009A,2026-07-13T03:23:17.316960,15.24021341,.0004426,50.0140,26.2922,27.5418,332.5771,0,U,58758,999,13880,.40737E-3,.9703E-4,0
YUNYAO-1 19,2024-009B,2026-07-13T03:24:11.488032,15.18406823,.0004598,49.9845,40.5379,32.5501,327.5735,0,U,58759,999,13861,.26752E-3,.5272E-4,0
YUNYAO-1 20,2024-009C,2026-07-13T01:44:32.451648,15.18594935,.0003317,49.9786,38.9045,40.2674,319.8524,0,U,58760,999,13862,.26406E-3,.5229E-4,0
STARLINK-31127,2024-011A,2026-07-12T20:35:23.784288,15.30192481,.0001323,53.1601,152.3179,97.9923,262.1228,0,U,58765,999,13943,-.98142E-4,-.3264E-4,0
STARLINK-31114,2024-011B,2026-07-12T09:49:56.280288,15.30192949,.00019725,53.1583,152.3890,74.8649,285.2570,0,U,58766,999,13939,-.26941613E-4,-.1157E-4,0
STARLINK-31140,2024-011C,2026-07-12T21:30:59.715936,15.34389368,.0000492,53.1599,151.1380,67.0481,293.0573,0,U,58767,999,13945,-.11203E-5,-.413E-5,0
STARLINK-31146,2024-011E,2026-07-12T21:40:04.994112,15.34394413,.0001249,53.1599,151.1782,89.2159,270.8986,0,U,58769,999,13945,.52745E-4,.1406E-4,0
STARLINK-31143,2024-011F,2026-07-12T21:49:10.445088,15.34394591,.0001327,53.1590,151.2192,95.4230,264.6924,0,U,58770,999,13945,.10309E-3,.3108E-4,0
STARLINK-31135,2024-011G,2026-07-12T22:07:11.398944,15.30178822,.0001554,53.1588,149.8923,106.6482,253.4690,0,U,58771,999,13947,-.36109E-4,-.1428E-4,0
STARLINK-31136,2024-011H,2026-07-13T00:29:30.177024,15.34391004,.0000808,53.1669,150.4867,300.3668,59.7255,0,U,58772,999,13946,.15098E-4,.134E-5,0
STARLINK-31073,2024-011J,2026-07-12T06:33:27.907488,15.30192457,.00013371,53.1597,155.0648,88.4196,271.6958,0,U,58773,999,13934,-.20817732E-4,-.976E-5,0
STARLINK-31122,2024-011K,2026-07-12T23:57:09.970848,15.30196192,.00015,53.1586,151.7611,69.7190,290.3972,0,U,58774,999,13945,-.12154E-4,-.719E-5,0
STARLINK-31123,2024-011L,2026-07-12T06:35:20.009760,15.34384527,.00020255,53.1577,153.6544,79.2706,280.8525,0,U,58775,999,1261,-.23478048E-4,-.117E-4,0
STARLINK-31117,2024-011M,2026-07-13T00:07:48.484992,15.30191752,.0001615,53.1579,151.8055,93.5127,266.6059,0,U,58776,999,13945,.58668E-4,.1378E-4,0
STARLINK-31132,2024-011N,2026-07-12T22:02:41.568288,15.31709995,.0001421,53.1613,61.0541,104.2960,255.8199,0,U,58777,999,14074,.3426E-4,.698E-5,0
STARLINK-31120,2024-011P,2026-07-12T21:37:03.141120,15.34393082,.0001204,53.1591,151.1538,100.4805,259.6333,0,U,58778,999,13945,.36317E-4,.851E-5,0
STARLINK-31142,2024-011Q,2026-07-13T00:04:46.193088,15.30190411,.0000964,53.1592,151.7921,72.9071,287.2035,0,U,58779,999,13945,.3755E-4,.753E-5,0
STARLINK-31099,2024-011S,2026-07-13T00:00:12.424320,15.30194957,.00011,53.1595,151.7715,92.5618,267.5509,0,U,58781,999,13945,-.80232E-5,-.597E-5,0
STARLINK-31047,2024-011U,2026-07-12T20:49:54.927840,15.34391408,.0001299,53.1597,134.8774,85.8754,274.2397,0,U,58783,999,13967,.28148E-4,.575E-5,0
STARLINK-31039,2024-011V,2026-07-13T02:59:12.448896,15.30184476,.0001154,53.1583,151.1215,74.2975,285.8153,0,U,58784,999,13947,.29938E-4,.527E-5,0
STARLINK-31034,2024-011W,2026-07-12T23:10:34.417632,15.34378550,.0001268,53.1600,47.1076,88.6547,271.4600,0,U,58785,999,14094,.18458E-5,-.314E-5,0
STARLINK-31024,2024-011X,2026-07-12T23:57:57.595392,15.30181342,.0001663,53.1577,149.6568,30.9196,329.1903,0,U,58786,999,13948,-.32138E-4,-.1311E-4,0
STARLINK-31189,2024-012A,2026-07-12T23:49:06.051360,15.27580834,.0000988,43.0008,177.2413,267.8949,92.1789,0,U,58787,999,14040,.16747E-4,.199E-5,0
STARLINK-31185,2024-012B,2026-07-12T00:04:00.783840,15.27579602,.00010099,42.9995,183.5738,275.6110,84.4627,0,U,58788,999,14024,.11024589E-4,.41E-6,0
STARLINK-31166,2024-012C,2026-07-13T00:13:09.073056,15.27575384,.0001398,43.0035,177.3665,288.6664,71.4036,0,U,58789,999,14040,.21347E-4,.325E-5,0
STARLINK-31187,2024-012D,2026-07-12T00:02:10.194432,15.27570939,.00014222,43.0009,183.5625,277.9209,82.1481,0,U,58790,999,14024,.56056248E-4,.128E-4,0
STARLINK-31162,2024-012E,2026-07-13T00:11:18.138048,15.27580136,.0001201,43.0029,177.3652,277.5156,82.5559,0,U,58791,999,14040,.31549E-5,-.175E-5,0
STARLINK-31184,2024-012G,2026-07-13T00:03:53.896032,15.27579051,.000118,43.0021,177.3188,259.3451,100.7268,0,U,58793,999,14040,.46445E-4,.1016E-4,0
STARLINK-31192,2024-012H,2026-07-12T23:30:48.642624,15.27578185,.0001258,42.9996,177.9962,292.3772,67.6946,0,U,58794,999,14039,-.33984E-6,-.271E-5,0
STARLINK-31161,2024-012J,2026-07-13T00:07:37.439616,15.27561503,.000076,43.0012,177.3389,259.3318,100.7449,0,U,58795,999,14040,-.49583E-4,-.1625E-4,0
STARLINK-31195,2024-012K,2026-07-12T23:41:54.602592,15.27579799,.0001038,43.0000,178.0588,298.9524,61.1224,0,U,58796,999,14039,.98111E-6,-.235E-5,0
STARLINK-31193,2024-012L,2026-07-13T00:20:33.187200,15.27578672,.0001678,43.0035,177.4064,286.0892,73.9774,0,U,58797,999,14040,.48121E-4,.1062E-4,0
STARLINK-31168,2024-012M,2026-07-12T22:51:58.908096,15.27557104,.0003565,43.0012,177.7973,302.9239,57.1270,0,U,58798,999,14039,-.31775E-4,-.1137E-4,0
STARLINK-31191,2024-012P,2026-07-12T09:50:53.748384,15.27622208,.00014482,43.0027,180.6108,335.8305,24.2478,0,U,58800,999,14031,.23515978E-3,.6223E-4,0
